$$SOE
2459580.500000000, A.D. 2022-Jan-01 00:00:00.0000, -3.735870620726823E+08, -6.725235963735846E+07, 1.278407480013249E+08,
2459587.500000000, A.D. 2022-Jan-08 00:00:00.0000, -3.701258357215306E+08, -7.862784784561467E+07, 1.276996436872753E+08,
2459594.500000000, A.D. 2022-Jan-15 00:00:00.0000, -3.663825668030965E+08, -8.994339149335505E+07, 1.274612115600244E+08,
2459601.500000000, A.D. 2022-Jan-22 00:00:00.0000, -3.623576965999418E+08, -1.011897769136792E+08, 1.271247954583880E+08,
2459608.500000000, A.D. 2022-Jan-29 00:00:00.0000, -3.580520087829527E+08, -1.123577139808697E+08, 1.266898448969010E+08,
2459615.500000000, A.D. 2022-Feb-05 00:00:00.0000, -3.534666394819509E+08, -1.234378541545043E+08, 1.261559192906775E+08,
2459622.500000000, A.D. 2022-Feb-12 00:00:00.0000, -3.486030842068585E+08, -1.344208104541951E+08, 1.255226916525330E+08,
2459629.500000000, A.D. 2022-Feb-19 00:00:00.0000, -3.434632028604497E+08, -1.452971769284663E+08, 1.247899520445277E+08,
2459636.500000000, A.D. 2022-Feb-26 00:00:00.0000, -3.380492240734264E+08, -1.560575482643938E+08, 1.239576108116284E+08,
2459643.500000000, A.D. 2022-Mar-05 00:00:00.0000, -3.323637486289383E+08, -1.666925400697627E+08, 1.230257015005280E+08,
2459650.500000000, A.D. 2022-Mar-12 00:00:00.0000, -3.264097516885357E+08, -1.771928097978462E+08, 1.219943834074466E+08,
2459657.500000000, A.D. 2022-Mar-19 00:00:00.0000, -3.201905836887195E+08, -1.875490781814973E+08, 1.208639437209049E+08,
2459664.500000000, A.D. 2022-Mar-26 00:00:00.0000, -3.137099698332969E+08, -1.977521510704831E+08, 1.196347992287335E+08,
2459671.500000000, A.D. 2022-Apr-02 00:00:00.0000, -3.069720080716472E+08, -2.077929416111123E+08, 1.183074975540082E+08,
2459678.500000000, A.D. 2022-Apr-09 00:00:00.0000, -2.999811652617155E+08, -2.176624926416718E+08, 1.168827178757933E+08,
2459685.500000000, A.D. 2022-Apr-16 00:00:00.0000, -2.927422711451073E+08, -2.273519985220916E+08, 1.153612711402570E+08,
2459692.500000000, A.D. 2022-Apr-23 00:00:00.0000, -2.852605113999328E+08, -2.368528251805132E+08, 1.137440999549769E+08,
2459699.500000000, A.D. 2022-Apr-30 00:00:00.0000, -2.775414216497576E+08, -2.461565304865375E+08, 1.120322781450069E+08,
2459706.500000000, A.D. 2022-May-07 00:00:00.0000, -2.695908793872907E+08, -2.552548867900872E+08, 1.102270095232887E+08,
2459713.500000000, A.D. 2022-May-14 00:00:00.0000, -2.614150924578241E+08, -2.641399024535877E+08, 1.083296259953649E+08,
2459720.500000000, A.D. 2022-May-21 00:00:00.0000, -2.530205861788637E+08, -2.728038414861597E+08, 1.063415852492546E+08,
2459727.500000000, A.D. 2022-May-28 00:00:00.0000, -2.444141896312829E+08, -2.812392421111136E+08, 1.042644680028487E+08,
2459734.500000000, A.D. 2022-Jun-04 00:00:00.0000, -2.356030209136938E+08, -2.894389344598342E+08, 1.020999747700329E+08,
2459741.500000000, A.D. 2022-Jun-11 00:00:00.0000, -2.265944712970319E+08, -2.973960572787235E+08, 9.984992215038782E+07,
2459748.500000000, A.D. 2022-Jun-18 00:00:00.0000, -2.173961883343532E+08, -3.051040735331946E+08, 9.751623866282550E+07,
2459755.500000000, A.D. 2022-Jun-25 00:00:00.0000, -2.080160580000220E+08, -3.125567848481531E+08, 9.510096014420678E+07,
2459762.500000000, A.D. 2022-Jul-02 00:00:00.0000, -1.984621858357868E+08, -3.197483447674534E+08, 9.260622472474830E+07,
2459769.500000000, A.D. 2022-Jul-09 00:00:00.0000, -1.887428768315236E+08, -3.266732705840138E+08, 9.003426739121792E+07,
2459776.500000000, A.D. 2022-Jul-16 00:00:00.0000, -1.788666142189938E+08, -3.333264525989658E+08, 8.738741426636022E+07,
2459783.500000000, A.D. 2022-Jul-23 00:00:00.0000, -1.688420395032691E+08, -3.397031606861205E+08, 8.466807684942575E+07,
2459790.500000000, A.D. 2022-Jul-30 00:00:00.0000, -1.586779337755175E+08, -3.457990514843549E+08, 8.187874597496487E+07,
2459797.500000000, A.D. 2022-Aug-06 00:00:00.0000, -1.483831968380734E+08, -3.516101755544543E+08, 7.902198525430776E+07,
2459804.500000000, A.D. 2022-Aug-13 00:00:00.0000, -1.379668250952580E+08, -3.571329817439072E+08, 7.610042434316969E+07,
2459811.500000000, A.D. 2022-Aug-20 00:00:00.0000, -1.274378899071381E+08, -3.623643192727797E+08, 7.311675218086588E+07,
2459818.500000000, A.D. 2022-Aug-27 00:00:00.0000, -1.168055164618074E+08, -3.673014382892244E+08, 7.007371017769659E+07,
2459825.500000000, A.D. 2022-Sep-03 00:00:00.0000, -1.060788630365600E+08, -3.719419890394202E+08, 6.697408536019345E+07,
2459832.500000000, A.D. 2022-Sep-10 00:00:00.0000, -9.526710066966346E+07, -3.762840196744444E+08, 6.382070350858617E+07,
2459839.500000000, A.D. 2022-Sep-17 00:00:00.0000, -8.437939331834996E+07, -3.803259727537290E+08, 6.061642232338521E+07,
2459846.500000000, A.D. 2022-Sep-24 00:00:00.0000, -7.342487854045668E+07, -3.840666805636351E+08, 5.736412464957283E+07,
2459853.500000000, A.D. 2022-Oct-01 00:00:00.0000, -6.241264854935724E+07, -3.875053593489751E+08, 5.406671177044035E+07,
2459860.500000000, A.D. 2022-Oct-08 00:00:00.0000, -5.135173131525385E+07, -3.906416020175688E+08, 5.072709680954297E+07,
2459867.500000000, A.D. 2022-Oct-15 00:00:00.0000, -4.025107271528795E+07, -3.934753682059616E+08, 4.734819845446715E+07,
2459874.500000000, A.D. 2022-Oct-22 00:00:00.0000, -2.911952197408734E+07, -3.960069734810219E+08, 4.393293509195031E+07,
2459881.500000000, A.D. 2022-Oct-29 00:00:00.0000, -1.796581794594877E+07, -3.982370803659949E+08, 4.048421893754072E+07,
2459888.500000000, A.D. 2022-Nov-05 00:00:00.0000, -6.798574179019143E+06, -4.001666885495228E+08, 3.700495021310894E+07,
2459895.500000000, A.D. 2022-Nov-12 00:00:00.0000, 4.373735242403149E+06, -4.017971231109957E+08, 3.349801167481606E+07,
2459902.500000000, A.D. 2022-Nov-19 00:00:00.0000, 1.554278833555484E+07, -4.031300218155190E+08, 2.996626349492489E+07,
2459909.500000000, A.D. 2022-Nov-26 00:00:00.0000, 2.670042658501929E+07, -4.041673219725729E+08, 2.641253845295711E+07,
2459916.500000000, A.D. 2022-Dec-03 00:00:00.0000, 3.783866519691395E+07, -4.049112469626286E+08, 2.283963742878333E+07,
2459923.500000000, A.D. 2022-Dec-10 00:00:00.0000, 4.894970229039380E+07, -4.053642925009583E+08, 1.925032520076680E+07,
2459930.500000000, A.D. 2022-Dec-17 00:00:00.0000, 6.002592706446186E+07, -4.055292127481754E+08, 1.564732654809672E+07,
2459937.500000000, A.D. 2022-Dec-24 00:00:00.0000, 7.105992707120828E+07, -4.054090064167421E+08, 1.203332264359123E+07,
2459944.500000000, A.D. 2022-Dec-31 00:00:00.0000, 8.204449498029414E+07, -4.050069028483618E+08, 8.410947712852448E+06,
2459951.500000000, A.D. 2023-Jan-07 00:00:00.0000, 9.297263498757815E+07, -4.043263471789022E+08, 4.782786024849057E+06,
2459958.500000000, A.D. 2023-Jan-14 00:00:00.0000, 1.038375669333559E+08, -4.033709841662384E+08, 1.151369430196553E+06,
2459965.500000000, A.D. 2023-Jan-21 00:00:00.0000, 1.146327275213766E+08, -4.021446439170281E+08, -2.480824759992570E+06,
2459972.500000000, A.D. 2023-Jan-28 00:00:00.0000, 1.253517723471729E+08, -4.006513297648297E+08, -6.111375915692449E+06,
2459979.500000000, A.D. 2023-Feb-04 00:00:00.0000, 1.359885785707906E+08, -3.988952053242954E+08, -9.737921993137300E+06,
2459986.500000000, A.D. 2023-Feb-11 00:00:00.0000, 1.465372464839225E+08, -3.968805809615920E+08, -1.335816106551021E+07,
2459993.500000000, A.D. 2023-Feb-18 00:00:00.0000, 1.569920999548447E+08, -3.946119005445778E+08, -1.696985255230707E+07,
2460000.500000000, A.D. 2023-Feb-25 00:00:00.0000, 1.673476860615314E+08, -3.920937286694162E+08, -2.057081819707155E+07,
2460007.500000000, A.D. 2023-Mar-04 00:00:00.0000, 1.775987740629168E+08, -3.893307383744465E+08, -2.415894281421050E+07,
2460014.500000000, A.D. 2023-Mar-11 00:00:00.0000, 1.877403537844742E+08, -3.863276993650887E+08, -2.773217482068324E+07,
2460021.500000000, A.D. 2023-Mar-18 00:00:00.0000, 1.977676335126389E+08, -3.830894668185285E+08, -3.128852657431316E+07,
2460028.500000000, A.D. 2023-Mar-25 00:00:00.0000, 2.076760376487229E+08, -3.796209708308420E+08, -3.482607455468246E+07,
2460035.500000000, A.D. 2023-Apr-01 00:00:00.0000, 2.174612045931503E+08, -3.759272061257612E+08, -3.834295940687886E+07,
2460042.500000000, A.D. 2023-Apr-08 00:00:00.0000, 2.271189842886452E+08, -3.720132208095171E+08, -4.183738570497309E+07,
2460049.500000000, A.D. 2023-Apr-15 00:00:00.0000, 2.366454331265468E+08, -3.678841052826538E+08, -4.530762132446525E+07,
2460056.500000000, A.D. 2023-Apr-22 00:00:00.0000, 2.460368080648834E+08, -3.635449843604099E+08, -4.875199685187982E+07,
2460063.500000000, A.D. 2023-Apr-29 00:00:00.0000, 2.552895627322561E+08, -3.590010103461975E+08, -5.216890511082663E+07,
2460070.500000000, A.D. 2023-May-06 00:00:00.0000, 2.644003437946290E+08, -3.542573552734677E+08, -5.555680050983034E+07,
2460077.500000000, A.D. 2023-May-13 00:00:00.0000, 2.733659866428683E+08, -3.493192032036952E+08, -5.891419820726833E+07,
2460084.500000000, A.D. 2023-May-20 00:00:00.0000, 2.821835106674522E+08, -3.441917430633816E+08, -6.223967316648486E+07,
2460091.500000000, A.D. 2023-May-27 00:00:00.0000, 2.908501143439833E+08, -3.388801620395198E+08, -6.553185913220994E+07,
2460098.500000000, A.D. 2023-Jun-03 00:00:00.0000, 2.993631702149952E+08, -3.333896394960995E+08, -6.878944754189195E+07,
2460105.500000000, A.D. 2023-Jun-10 00:00:00.0000, 3.077202198173837E+08, -3.277253414125327E+08, -7.201118638508189E+07,
2460112.500000000, A.D. 2023-Jun-17 00:00:00.0000, 3.159189686680155E+08, -3.218924153896969E+08, -7.519587903311065E+07,
2460119.500000000, A.D. 2023-Jun-24 00:00:00.0000, 3.239572816498013E+08, -3.158959861526348E+08, -7.834238307248724E+07,
2460126.500000000, A.D. 2023-Jul-01 00:00:00.0000, 3.318331790727198E+08, -3.097411507069173E+08, -8.144960910588747E+07,
2460133.500000000, A.D. 2023-Jul-08 00:00:00.0000, 3.395448317549122E+08, -3.034329723125809E+08, -8.451651930795696E+07,
2460140.500000000, A.D. 2023-Jul-15 00:00:00.0000, 3.470905538626972E+08, -2.969764760904208E+08, -8.754212585713214E+07,
$$EOE